{
  "type": "FeatureCollection",
  "features": [
    {
      "type": "Feature",
      "properties": {
        "district": "Purnia",
        "block": "Kasba",
        "code": "BR-PUR-KAS",
        "total_villages": 0,
        "total_panchayats": 0
      },
      "geometry": {
        "type": "Polygon",
        "coordinates": [
          [
            [
              87.45,
              25.8
            ],
            [
              87.58,
              25.8
            ],
            [
              87.58,
              25.92
            ],
            [
              87.45,
              25.92
            ],
            [
              87.45,
              25.8
            ]
          ]
        ]
      }
    },
    {
      "type": "Feature",
      "properties": {
        "district": "Purnia",
        "block": "Dhamdaha",
        "code": "BR-PUR-DHA",
        "total_villages": 0,
        "total_panchayats": 0
      },
      "geometry": {
        "type": "Polygon",
        "coordinates": [
          [
            [
              87.25,
              25.75
            ],
            [
              87.42,
              25.75
            ],
            [
              87.42,
              25.88
            ],
            [
              87.25,
              25.88
            ],
            [
              87.25,
              25.75
            ]
          ]
        ]
      }
    },
    {
      "type": "Feature",
      "properties": {
        "district": "Katihar",
        "block": "Manihari",
        "code": "BR-KAT-MAN",
        "total_villages": 70,
        "total_panchayats": 14
      },
      "geometry": {
        "type": "Polygon",
        "coordinates": [
          [
            [
              87.55,
              25.32
            ],
            [
              87.68,
              25.32
            ],
            [
              87.68,
              25.45
            ],
            [
              87.55,
              25.45
            ],
            [
              87.55,
              25.32
            ]
          ]
        ]
      }
    },
    {
      "type": "Feature",
      "properties": {
        "district": "Araria",
        "block": "Forbesganj",
        "code": "BR-ARA-FOR",
        "total_villages": 104,
        "total_panchayats": 31
      },
      "geometry": {
        "type": "Polygon",
        "coordinates": [
          [
            [
              87.2,
              26.25
            ],
            [
              87.35,
              26.25
            ],
            [
              87.35,
              26.38
            ],
            [
              87.2,
              26.38
            ],
            [
              87.2,
              26.25
            ]
          ]
        ]
      }
    },
    {
      "type": "Feature",
      "properties": {
        "district": "Supaul",
        "block": "Birpur",
        "code": "BR-SUP-BIR",
        "total_villages": 0,
        "total_panchayats": 0
      },
      "geometry": {
        "type": "Polygon",
        "coordinates": [
          [
            [
              86.95,
              26.45
            ],
            [
              87.1,
              26.45
            ],
            [
              87.1,
              26.58
            ],
            [
              86.95,
              26.58
            ],
            [
              86.95,
              26.45
            ]
          ]
        ]
      }
    },
    {
      "type": "Feature",
      "properties": {
        "district": "Uttar Dinajpur",
        "block": "Raiganj",
        "code": "WB-UTD-RAI",
        "total_villages": 224,
        "total_panchayats": 14
      },
      "geometry": {
        "type": "Polygon",
        "coordinates": [
          [
            [
              88,
              25.5
            ],
            [
              88.2,
              25.5
            ],
            [
              88.2,
              25.7
            ],
            [
              88,
              25.7
            ],
            [
              88,
              25.5
            ]
          ]
        ]
      }
    },
    {
      "type": "Feature",
      "properties": {
        "district": "Kishanganj",
        "block": "Bahadurganj",
        "code": "BR-KIS-BAH",
        "total_villages": 105,
        "total_panchayats": 20
      },
      "geometry": {
        "type": "Polygon",
        "coordinates": [
          [
            [
              87.94,
              26.079
            ],
            [
              88.02,
              26.079
            ],
            [
              88.02,
              26.159
            ],
            [
              87.94,
              26.159
            ],
            [
              87.94,
              26.079
            ]
          ]
        ]
      }
    },
    {
      "type": "Feature",
      "properties": {
        "district": "Kishanganj",
        "block": "Dighalbank",
        "code": "BR-KIS-DIG",
        "total_villages": 81,
        "total_panchayats": 16
      },
      "geometry": {
        "type": "Polygon",
        "coordinates": [
          [
            [
              87.94,
              26.179
            ],
            [
              88.02,
              26.179
            ],
            [
              88.02,
              26.259
            ],
            [
              87.94,
              26.259
            ],
            [
              87.94,
              26.179
            ]
          ]
        ]
      }
    },
    {
      "type": "Feature",
      "properties": {
        "district": "Kishanganj",
        "block": "Kishanganj",
        "code": "BR-KIS-KIS",
        "total_villages": 77,
        "total_panchayats": 10
      },
      "geometry": {
        "type": "Polygon",
        "coordinates": [
          [
            [
              87.94,
              26.279
            ],
            [
              88.02,
              26.279
            ],
            [
              88.02,
              26.359
            ],
            [
              87.94,
              26.359
            ],
            [
              87.94,
              26.279
            ]
          ]
        ]
      }
    },
    {
      "type": "Feature",
      "properties": {
        "district": "Kishanganj",
        "block": "Kochadhaman",
        "code": "BR-KIS-KOC",
        "total_villages": 150,
        "total_panchayats": 24
      },
      "geometry": {
        "type": "Polygon",
        "coordinates": [
          [
            [
              88.04,
              26.079
            ],
            [
              88.12,
              26.079
            ],
            [
              88.12,
              26.159
            ],
            [
              88.04,
              26.159
            ],
            [
              88.04,
              26.079
            ]
          ]
        ]
      }
    },
    {
      "type": "Feature",
      "properties": {
        "district": "Kishanganj",
        "block": "Pothia",
        "code": "BR-KIS-POT",
        "total_villages": 149,
        "total_panchayats": 22
      },
      "geometry": {
        "type": "Polygon",
        "coordinates": [
          [
            [
              88.04,
              26.179
            ],
            [
              88.12,
              26.179
            ],
            [
              88.12,
              26.259
            ],
            [
              88.04,
              26.259
            ],
            [
              88.04,
              26.179
            ]
          ]
        ]
      }
    },
    {
      "type": "Feature",
      "properties": {
        "district": "Kishanganj",
        "block": "Terhagachh",
        "code": "BR-KIS-TER",
        "total_villages": 82,
        "total_panchayats": 12
      },
      "geometry": {
        "type": "Polygon",
        "coordinates": [
          [
            [
              88.04,
              26.279
            ],
            [
              88.12,
              26.279
            ],
            [
              88.12,
              26.359
            ],
            [
              88.04,
              26.359
            ],
            [
              88.04,
              26.279
            ]
          ]
        ]
      }
    },
    {
      "type": "Feature",
      "properties": {
        "district": "Kishanganj",
        "block": "Thakurganj",
        "code": "BR-KIS-THA",
        "total_villages": 128,
        "total_panchayats": 21
      },
      "geometry": {
        "type": "Polygon",
        "coordinates": [
          [
            [
              88.14,
              26.079
            ],
            [
              88.22,
              26.079
            ],
            [
              88.22,
              26.159
            ],
            [
              88.14,
              26.159
            ],
            [
              88.14,
              26.079
            ]
          ]
        ]
      }
    }
  ]
}